KUIPER-00156            
1 65775U 25217P   26066.64240337  .00007044  00000+0  95162-3 0  9996
2 65775  51.9037  34.6771 0000851  90.7642 269.3418 14.79954093 24816
KUIPER-00158            
1 65776U 25217Q   26066.17215838  .00006534  00000+0  87323-3 0  9996
2 65776  51.8970  56.6048 0001167  47.9227 312.1835 14.80517440 24472
KUIPER-00163            
1 65777U 25217R   26066.58334491  .01924472  00000+0  14315+0 0  9997
2 65777  51.8971  56.4148 0001375  51.6972  87.2135 14.99152712  5641
KUIPER-00165            
1 65778U 25217S   26066.22646939  .00006388  00000+0  86609-3 0  9997
2 65778  51.9017  46.4887 0000814  88.2681 271.8375 14.79933583 24619
KUIPER-00166            
1 65779U 25217T   26066.27369035 -.00008635  00000+0 -11050-2 0  9998
2 65779  51.9047  33.8028 0000464 109.6323 250.4690 14.79937581 24796
KUIPER-00167            
1 65780U 25217U   26066.21570102  .00006168  00000+0  83692-3 0  9992
2 65780  51.8966  56.5021 0000660  76.2931 283.8105 14.79952477 24471
KUIPER-00168            
1 65781U 25217V   26066.63973840  .00007022  00000+0  94883-3 0  9999
2 65781  51.9021  37.1641 0001031  84.8651 275.2429 14.79944448 24782
KUIPER-00169            
1 65782U 25217W   26066.63518741  .00006797  00000+0  92179-3 0  9999
2 65782  51.9021  42.1954 0000831  94.3915 265.7143 14.79834280 24714
KUIPER-00170            
1 65783U 25217X   26066.35846261  .00006807  00000+0  92099-3 0  9993
2 65783  51.8999  48.3923 0000900  98.4911 261.6154 14.79932291 24606
KUIPER-00172            
1 65785U 25217Z   26066.58334491 -.00041223  00000+0 -49955-2 0  9992
2 65785  51.9009  28.1374 0001217 333.9120  73.5862 14.83259996  3408
KUIPER-00173            
1 65786U 25217AA  26066.58334491 -.00377252  00000+0 -51373-1 0  9993
2 65786  51.9019  41.6950 0000770  24.9882 257.4863 14.80320380  5336
KUIPER-00174            
1 65787U 25217AB  26066.60595952  .00006951  00000+0  93937-3 0  9995
2 65787  51.9044  37.3397 0001257  69.2659 290.8438 14.79958084 24771
KUIPER-00176            
1 65788U 25217AC  26066.25197876  .00006563  00000+0  88903-3 0  9996
2 65788  51.9003  53.8765 0000838  86.8674 273.2384 14.79934661 24517
KUIPER-00101            
1 65947U 25228A   26066.26425534  .00007843  00000+0  10565-2 0  9991
2 65947  51.8998  11.3027 0000759  94.6179 265.4871 14.79937588 22877
KUIPER-00113            
1 65948U 25228B   26066.23580692 -.00002636  00000+0 -31704-3 0  9992
2 65948  51.9040   6.4456 0000402  90.1851 269.9157 14.79913379 22936
KUIPER-00117            
1 65949U 25228C   26066.53707421  .00002930  00000+0  41319-3 0  9995
2 65949  51.9019   7.6176 0000854  88.0081 272.0979 14.79932701 22945
KUIPER-00121            
1 65950U 25228D   26066.50865381 -.00001645  00000+0 -18694-3 0  9998
2 65950  51.9016   2.7375 0001186 118.3136 241.7946 14.79905727 23012
