[{"OBJECT_NAME":"KUIPER-00156","OBJECT_ID":"2025-217P","EPOCH":"2026-03-07T15:25:03.651168","MEAN_MOTION":14.79954093,"ECCENTRICITY":8.518e-5,"INCLINATION":51.9037,"RA_OF_ASC_NODE":34.6771,"ARG_OF_PERICENTER":90.7642,"MEAN_ANOMALY":269.3418,"EPHEMERIS_TYPE":0,"CLASSIFICATION_TYPE":"U","NORAD_CAT_ID":65775,"ELEMENT_SET_NO":999,"REV_AT_EPOCH":2481,"BSTAR":0.0009516159,"MEAN_MOTION_DOT":7.044e-5,"MEAN_MOTION_DDOT":0},{"OBJECT_NAME":"KUIPER-00158","OBJECT_ID":"2025-217Q","EPOCH":"2026-03-07T04:07:54.484032","MEAN_MOTION":14.8051744,"ECCENTRICITY":0.0001167,"INCLINATION":51.897,"RA_OF_ASC_NODE":56.6048,"ARG_OF_PERICENTER":47.9227,"MEAN_ANOMALY":312.1835,"EPHEMERIS_TYPE":0,"CLASSIFICATION_TYPE":"U","NORAD_CAT_ID":65776,"ELEMENT_SET_NO":999,"REV_AT_EPOCH":2447,"BSTAR":0.00087323397,"MEAN_MOTION_DOT":6.534e-5,"MEAN_MOTION_DDOT":0},{"OBJECT_NAME":"KUIPER-00163","OBJECT_ID":"2025-217R","EPOCH":"2026-03-07T14:00:01.000224","MEAN_MOTION":14.99152712,"ECCENTRICITY":0.00013757,"INCLINATION":51.8971,"RA_OF_ASC_NODE":56.4148,"ARG_OF_PERICENTER":51.6972,"MEAN_ANOMALY":87.2135,"EPHEMERIS_TYPE":0,"CLASSIFICATION_TYPE":"U","NORAD_CAT_ID":65777,"ELEMENT_SET_NO":999,"REV_AT_EPOCH":564,"BSTAR":0.14314755,"MEAN_MOTION_DOT":0.01924472,"MEAN_MOTION_DDOT":0},{"OBJECT_NAME":"KUIPER-00165","OBJECT_ID":"2025-217S","EPOCH":"2026-03-07T05:26:06.955296","MEAN_MOTION":14.79933583,"ECCENTRICITY":8.14e-5,"INCLINATION":51.9017,"RA_OF_ASC_NODE":46.4887,"ARG_OF_PERICENTER":88.2681,"MEAN_ANOMALY":271.8375,"EPHEMERIS_TYPE":0,"CLASSIFICATION_TYPE":"U","NORAD_CAT_ID":65778,"ELEMENT_SET_NO":999,"REV_AT_EPOCH":2461,"BSTAR":0.00086609,"MEAN_MOTION_DOT":6.388e-5,"MEAN_MOTION_DDOT":0},{"OBJECT_NAME":"KUIPER-00166","OBJECT_ID":"2025-217T","EPOCH":"2026-03-07T06:34:06.846240","MEAN_MOTION":14.79937581,"ECCENTRICITY":4.64e-5,"INCLINATION":51.9047,"RA_OF_ASC_NODE":33.8028,"ARG_OF_PERICENTER":109.6323,"MEAN_ANOMALY":250.469,"EPHEMERIS_TYPE":0,"CLASSIFICATION_TYPE":"U","NORAD_CAT_ID":65779,"ELEMENT_SET_NO":999,"REV_AT_EPOCH":2479,"BSTAR":-0.001105,"MEAN_MOTION_DOT":-8.635e-5,"MEAN_MOTION_DDOT":0},{"OBJECT_NAME":"KUIPER-00167","OBJECT_ID":"2025-217U","EPOCH":"2026-03-07T05:10:36.568128","MEAN_MOTION":14.79952477,"ECCENTRICITY":6.6e-5,"INCLINATION":51.8966,"RA_OF_ASC_NODE":56.5021,"ARG_OF_PERICENTER":76.2931,"MEAN_ANOMALY":283.8105,"EPHEMERIS_TYPE":0,"CLASSIFICATION_TYPE":"U","NORAD_CAT_ID":65780,"ELEMENT_SET_NO":999,"REV_AT_EPOCH":2447,"BSTAR":0.00083692,"MEAN_MOTION_DOT":6.168e-5,"MEAN_MOTION_DDOT":0},{"OBJECT_NAME":"KUIPER-00168","OBJECT_ID":"2025-217V","EPOCH":"2026-03-07T15:21:13.397760","MEAN_MOTION":14.79944448,"ECCENTRICITY":0.00010317,"INCLINATION":51.9021,"RA_OF_ASC_NODE":37.1641,"ARG_OF_PERICENTER":84.8651,"MEAN_ANOMALY":275.2429,"EPHEMERIS_TYPE":0,"CLASSIFICATION_TYPE":"U","NORAD_CAT_ID":65781,"ELEMENT_SET_NO":999,"REV_AT_EPOCH":2478,"BSTAR":0.00094883462,"MEAN_MOTION_DOT":7.022e-5,"MEAN_MOTION_DDOT":0},{"OBJECT_NAME":"KUIPER-00169","OBJECT_ID":"2025-217W","EPOCH":"2026-03-07T15:14:40.192224","MEAN_MOTION":14.7983428,"ECCENTRICITY":8.318e-5,"INCLINATION":51.9021,"RA_OF_ASC_NODE":42.1954,"ARG_OF_PERICENTER":94.3915,"MEAN_ANOMALY":265.7143,"EPHEMERIS_TYPE":0,"CLASSIFICATION_TYPE":"U","NORAD_CAT_ID":65782,"ELEMENT_SET_NO":999,"REV_AT_EPOCH":2471,"BSTAR":0.00092179355,"MEAN_MOTION_DOT":6.797e-5,"MEAN_MOTION_DDOT":0},{"OBJECT_NAME":"KUIPER-00170","OBJECT_ID":"2025-217X","EPOCH":"2026-03-07T08:36:11.169504","MEAN_MOTION":14.79932291,"ECCENTRICITY":9.002e-5,"INCLINATION":51.8999,"RA_OF_ASC_NODE":48.3923,"ARG_OF_PERICENTER":98.4911,"MEAN_ANOMALY":261.6154,"EPHEMERIS_TYPE":0,"CLASSIFICATION_TYPE":"U","NORAD_CAT_ID":65783,"ELEMENT_SET_NO":999,"REV_AT_EPOCH":2460,"BSTAR":0.00092098505,"MEAN_MOTION_DOT":6.807e-5,"MEAN_MOTION_DDOT":0},{"OBJECT_NAME":"KUIPER-00172","OBJECT_ID":"2025-217Z","EPOCH":"2026-03-07T14:00:01.000224","MEAN_MOTION":14.83259996,"ECCENTRICITY":0.00012178,"INCLINATION":51.9009,"RA_OF_ASC_NODE":28.1374,"ARG_OF_PERICENTER":333.912,"MEAN_ANOMALY":73.5862,"EPHEMERIS_TYPE":0,"CLASSIFICATION_TYPE":"U","NORAD_CAT_ID":65785,"ELEMENT_SET_NO":999,"REV_AT_EPOCH":340,"BSTAR":-0.0049955265,"MEAN_MOTION_DOT":-0.00041223,"MEAN_MOTION_DDOT":0},{"OBJECT_NAME":"KUIPER-00173","OBJECT_ID":"2025-217AA","EPOCH":"2026-03-07T14:00:01.000224","MEAN_MOTION":14.8032038,"ECCENTRICITY":7.705e-5,"INCLINATION":51.9019,"RA_OF_ASC_NODE":41.695,"ARG_OF_PERICENTER":24.9882,"MEAN_ANOMALY":257.4863,"EPHEMERIS_TYPE":0,"CLASSIFICATION_TYPE":"U","NORAD_CAT_ID":65786,"ELEMENT_SET_NO":999,"REV_AT_EPOCH":533,"BSTAR":-0.051372803,"MEAN_MOTION_DOT":-0.00377252,"MEAN_MOTION_DDOT":0},{"OBJECT_NAME":"KUIPER-00174","OBJECT_ID":"2025-217AB","EPOCH":"2026-03-07T14:32:34.902528","MEAN_MOTION":14.79958084,"ECCENTRICITY":0.00012578,"INCLINATION":51.9044,"RA_OF_ASC_NODE":37.3397,"ARG_OF_PERICENTER":69.2659,"MEAN_ANOMALY":290.8438,"EPHEMERIS_TYPE":0,"CLASSIFICATION_TYPE":"U","NORAD_CAT_ID":65787,"ELEMENT_SET_NO":999,"REV_AT_EPOCH":2477,"BSTAR":0.00093936975,"MEAN_MOTION_DOT":6.951e-5,"MEAN_MOTION_DDOT":0},{"OBJECT_NAME":"KUIPER-00176","OBJECT_ID":"2025-217AC","EPOCH":"2026-03-07T06:02:50.964864","MEAN_MOTION":14.79934661,"ECCENTRICITY":8.38e-5,"INCLINATION":51.9003,"RA_OF_ASC_NODE":53.8765,"ARG_OF_PERICENTER":86.8674,"MEAN_ANOMALY":273.2384,"EPHEMERIS_TYPE":0,"CLASSIFICATION_TYPE":"U","NORAD_CAT_ID":65788,"ELEMENT_SET_NO":999,"REV_AT_EPOCH":2451,"BSTAR":0.00088903,"MEAN_MOTION_DOT":6.563e-5,"MEAN_MOTION_DDOT":0},{"OBJECT_NAME":"KUIPER-00101","OBJECT_ID":"2025-228A","EPOCH":"2026-03-07T06:20:31.661376","MEAN_MOTION":14.79937588,"ECCENTRICITY":7.59e-5,"INCLINATION":51.8998,"RA_OF_ASC_NODE":11.3027,"ARG_OF_PERICENTER":94.6179,"MEAN_ANOMALY":265.4871,"EPHEMERIS_TYPE":0,"CLASSIFICATION_TYPE":"U","NORAD_CAT_ID":65947,"ELEMENT_SET_NO":999,"REV_AT_EPOCH":2287,"BSTAR":0.0010565,"MEAN_MOTION_DOT":7.843e-5,"MEAN_MOTION_DDOT":0},{"OBJECT_NAME":"KUIPER-00113","OBJECT_ID":"2025-228B","EPOCH":"2026-03-07T05:39:33.717888","MEAN_MOTION":14.79913379,"ECCENTRICITY":4.02e-5,"INCLINATION":51.904,"RA_OF_ASC_NODE":6.4456,"ARG_OF_PERICENTER":90.1851,"MEAN_ANOMALY":269.9157,"EPHEMERIS_TYPE":0,"CLASSIFICATION_TYPE":"U","NORAD_CAT_ID":65948,"ELEMENT_SET_NO":999,"REV_AT_EPOCH":2293,"BSTAR":-0.00031704,"MEAN_MOTION_DOT":-2.636e-5,"MEAN_MOTION_DDOT":0},{"OBJECT_NAME":"KUIPER-00117","OBJECT_ID":"2025-228C","EPOCH":"2026-03-07T12:53:23.211744","MEAN_MOTION":14.79932701,"ECCENTRICITY":8.549e-5,"INCLINATION":51.9019,"RA_OF_ASC_NODE":7.6176,"ARG_OF_PERICENTER":88.0081,"MEAN_ANOMALY":272.0979,"EPHEMERIS_TYPE":0,"CLASSIFICATION_TYPE":"U","NORAD_CAT_ID":65949,"ELEMENT_SET_NO":999,"REV_AT_EPOCH":2294,"BSTAR":0.00041318576,"MEAN_MOTION_DOT":2.93e-5,"MEAN_MOTION_DDOT":0},{"OBJECT_NAME":"KUIPER-00121","OBJECT_ID":"2025-228D","EPOCH":"2026-03-07T12:12:27.689184","MEAN_MOTION":14.79905727,"ECCENTRICITY":0.00011862,"INCLINATION":51.9016,"RA_OF_ASC_NODE":2.7375,"ARG_OF_PERICENTER":118.3136,"MEAN_ANOMALY":241.7946,"EPHEMERIS_TYPE":0,"CLASSIFICATION_TYPE":"U","NORAD_CAT_ID":65950,"ELEMENT_SET_NO":999,"REV_AT_EPOCH":2301,"BSTAR":-0.00018694173,"MEAN_MOTION_DOT":-1.645e-5,"MEAN_MOTION_DDOT":0}]
